start=new Date('2022-09-02T00:00:00.000Z').valueOf();
sats=[{"OBJECT_NAME":"STARLINK-4486","SITE":"AFETR","REV_AT_EPOCH":"130","TLE_LINE1":"1 53540U 22101P   22244.91667824  .00041586  00000-0  30008-3 0  9998","ARG_OF_PERICENTER":"65.6896","DECAY_DATE":null,"OBJECT_ID":"2022-101P","MEAN_MOTION_DOT":"0.00041586","FILE":"3554009","MEAN_ELEMENT_THEORY":"SGP4","PERIAPSIS":"348.822","ELEMENT_SET_NO":"999","ECCENTRICITY":"0.00016720","BSTAR":"0.00030008000000","CLASSIFICATION_TYPE":"U","RCS_SIZE":null,"COUNTRY_CODE":"US","RA_OF_ASC_NODE":"89.7790","REF_FRAME":"TEME","TLE_LINE2":"2 53540  53.2163  89.7790 0001672  65.6896 285.3492 15.73134558  1304","MEAN_MOTION_DDOT":"0.0000000000000","OBJECT_TYPE":"PAYLOAD","GP_ID":"211506670","TIME_SYSTEM":"UTC","LAUNCH_DATE":"2022-08-19","EPHEMERIS_TYPE":"0","CENTER_NAME":"EARTH","PERIOD":"91.537","EPOCH":"2022-09-01T22:00:00.999936","INCLINATION":"53.2163","APOAPSIS":"351.072","SEMIMAJOR_AXIS":"6728.082","NORAD_CAT_ID":"53540","MEAN_MOTION":"15.73134558","MEAN_ANOMALY":"285.3492"},{"OBJECT_TYPE":"PAYLOAD","GP_ID":"211506113","LAUNCH_DATE":"2022-08-19","TIME_SYSTEM":"UTC","REF_FRAME":"TEME","RA_OF_ASC_NODE":"89.7829","COUNTRY_CODE":"US","TLE_LINE2":"2 53541  53.2159  89.7829 0001152  58.5662 290.0077 15.73238892  1306","MEAN_MOTION_DDOT":"0.0000000000000","SEMIMAJOR_AXIS":"6727.784","NORAD_CAT_ID":"53541","MEAN_ANOMALY":"290.0077","MEAN_MOTION":"15.73238892","CENTER_NAME":"EARTH","EPHEMERIS_TYPE":"0","PERIOD":"91.531","INCLINATION":"53.2159","EPOCH":"2022-09-01T22:00:00.999936","APOAPSIS":"350.424","OBJECT_ID":"2022-101Q","MEAN_MOTION_DOT":"-0.00077967","PERIAPSIS":"348.874","FILE":"3554009","MEAN_ELEMENT_THEORY":"SGP4","OBJECT_NAME":"STARLINK-4485","TLE_LINE1":"1 53541U 22101Q   22244.91667824 -.00077967  00000-0 -55534-3 0  9994","ARG_OF_PERICENTER":"58.5662","SITE":"AFETR","REV_AT_EPOCH":"130","DECAY_DATE":null,"ECCENTRICITY":"0.00011520","BSTAR":"-0.00055534000000","CLASSIFICATION_TYPE":"U","RCS_SIZE":null,"ELEMENT_SET_NO":"999"},{"INCLINATION":"53.2161","EPOCH":"2022-09-01T22:00:00.999936","APOAPSIS":"350.605","EPHEMERIS_TYPE":"0","CENTER_NAME":"EARTH","PERIOD":"91.534","MEAN_MOTION":"15.73178039","MEAN_ANOMALY":"301.7500","SEMIMAJOR_AXIS":"6727.958","NORAD_CAT_ID":"53542","TLE_LINE2":"2 53542  53.2161  89.7762 0001162  50.3469 301.7500 15.73178039  1309","MEAN_MOTION_DDOT":"0.0000000000000","COUNTRY_CODE":"US","RA_OF_ASC_NODE":"89.7762","REF_FRAME":"TEME","GP_ID":"211506813","TIME_SYSTEM":"UTC","LAUNCH_DATE":"2022-08-19","OBJECT_TYPE":"PAYLOAD","ELEMENT_SET_NO":"999","RCS_SIZE":null,"BSTAR":"0.00026774000000","ECCENTRICITY":"0.00011620","CLASSIFICATION_TYPE":"U","SITE":"AFETR","REV_AT_EPOCH":"130","ARG_OF_PERICENTER":"50.3469","TLE_LINE1":"1 53542U 22101R   22244.91667824  .00037086  00000-0  26774-3 0  9995","DECAY_DATE":null,"OBJECT_NAME":"STARLINK-4489","MEAN_MOTION_DOT":"0.00037086","OBJECT_ID":"2022-101R","MEAN_ELEMENT_THEORY":"SGP4","FILE":"3554009","PERIAPSIS":"349.041"},{"MEAN_ELEMENT_THEORY":"SGP4","FILE":"3554009","PERIAPSIS":"348.855","MEAN_MOTION_DOT":"0.00036118","OBJECT_ID":"2022-101S","OBJECT_NAME":"STARLINK-4297","DECAY_DATE":null,"REV_AT_EPOCH":"130","SITE":"AFETR","TLE_LINE1":"1 53543U 22101S   22244.91667824  .00036118  00000-0  26085-3 0  9996","ARG_OF_PERICENTER":"62.6993","CLASSIFICATION_TYPE":"U","ECCENTRICITY":"0.00014210","BSTAR":"0.00026085000000","RCS_SIZE":null,"ELEMENT_SET_NO":"999","OBJECT_TYPE":"PAYLOAD","TIME_SYSTEM":"UTC","LAUNCH_DATE":"2022-08-19","GP_ID":"211506384","COUNTRY_CODE":"US","RA_OF_ASC_NODE":"89.7792","REF_FRAME":"TEME","MEAN_MOTION_DDOT":"0.0000000000000","TLE_LINE2":"2 53543  53.2160  89.7792 0001421  62.6993 287.6783 15.73182130  1300","NORAD_CAT_ID":"53543","SEMIMAJOR_AXIS":"6727.946","MEAN_MOTION":"15.73182130","MEAN_ANOMALY":"287.6783","PERIOD":"91.534","EPHEMERIS_TYPE":"0","CENTER_NAME":"EARTH","APOAPSIS":"350.767","EPOCH":"2022-09-01T22:00:00.999936","INCLINATION":"53.2160"},{"OBJECT_NAME":"STARLINK-4303","SITE":"AFETR","REV_AT_EPOCH":"130","ARG_OF_PERICENTER":"47.1608","TLE_LINE1":"1 53544U 22101T   22244.91667824  .00043341  00000-0  31170-3 0  9994","DECAY_DATE":null,"OBJECT_ID":"2022-101T","MEAN_MOTION_DOT":"0.00043341","FILE":"3554009","MEAN_ELEMENT_THEORY":"SGP4","PERIAPSIS":"349.103","ELEMENT_SET_NO":"999","BSTAR":"0.00031170000000","ECCENTRICITY":"0.00009990","CLASSIFICATION_TYPE":"U","RCS_SIZE":null,"COUNTRY_CODE":"US","RA_OF_ASC_NODE":"89.7739","REF_FRAME":"TEME","TLE_LINE2":"2 53544  53.2162  89.7739 0000999  47.1608 306.1737 15.73194920  1300","MEAN_MOTION_DDOT":"0.0000000000000","OBJECT_TYPE":"PAYLOAD","GP_ID":"211506827","TIME_SYSTEM":"UTC","LAUNCH_DATE":"2022-08-19","EPHEMERIS_TYPE":"0","CENTER_NAME":"EARTH","PERIOD":"91.533","INCLINATION":"53.2162","EPOCH":"2022-09-01T22:00:00.999936","APOAPSIS":"350.447","SEMIMAJOR_AXIS":"6727.910","NORAD_CAT_ID":"53544","MEAN_MOTION":"15.73194920","MEAN_ANOMALY":"306.1737"},{"MEAN_MOTION":"15.73183180","MEAN_ANOMALY":"280.6775","NORAD_CAT_ID":"53545","SEMIMAJOR_AXIS":"6727.943","APOAPSIS":"350.747","EPOCH":"2022-09-01T22:00:00.999936","INCLINATION":"53.2162","PERIOD":"91.534","EPHEMERIS_TYPE":"0","CENTER_NAME":"EARTH","TIME_SYSTEM":"UTC","LAUNCH_DATE":"2022-08-19","GP_ID":"211506527","OBJECT_TYPE":"PAYLOAD","MEAN_MOTION_DDOT":"0.0000000000000","TLE_LINE2":"2 53545  53.2162  89.7773 0001396  70.8205 280.6775 15.73183180  1301","COUNTRY_CODE":"US","RA_OF_ASC_NODE":"89.7773","REF_FRAME":"TEME","RCS_SIZE":null,"CLASSIFICATION_TYPE":"U","ECCENTRICITY":"0.00013960","BSTAR":"0.00029907000000","ELEMENT_SET_NO":"999","FILE":"3554009","MEAN_ELEMENT_THEORY":"SGP4","PERIAPSIS":"348.869","OBJECT_ID":"2022-101U","MEAN_MOTION_DOT":"0.00041530","DECAY_DATE":null,"REV_AT_EPOCH":"130","SITE":"AFETR","ARG_OF_PERICENTER":"70.8205","TLE_LINE1":"1 53545U 22101U   22244.91667824  .00041530  00000-0  29907-3 0  9998","OBJECT_NAME":"STARLINK-4475"},{"SEMIMAJOR_AXIS":"6699.839","NORAD_CAT_ID":"53546","MEAN_MOTION":"15.83092192","MEAN_ANOMALY":"69.8837","EPHEMERIS_TYPE":"0","CENTER_NAME":"EARTH","PERIOD":"90.961","EPOCH":"2022-09-01T22:00:00.999936","INCLINATION":"53.2176","APOAPSIS":"323.120","OBJECT_TYPE":"PAYLOAD","GP_ID":"211506970","TIME_SYSTEM":"UTC","LAUNCH_DATE":"2022-08-19","COUNTRY_CODE":"US","RA_OF_ASC_NODE":"88.8431","REF_FRAME":"TEME","TLE_LINE2":"2 53546  53.2176  88.8431 0002113  21.7302  69.8837 15.83092192  1308","MEAN_MOTION_DDOT":"0.0000000000000","BSTAR":"-0.00615180000000","ECCENTRICITY":"0.00021130","CLASSIFICATION_TYPE":"U","RCS_SIZE":null,"ELEMENT_SET_NO":"999","OBJECT_ID":"2022-101V","MEAN_MOTION_DOT":"-0.01199499","MEAN_ELEMENT_THEORY":"SGP4","FILE":"3554009","PERIAPSIS":"320.288","OBJECT_NAME":"STARLINK-4477","REV_AT_EPOCH":"130","SITE":"AFETR","ARG_OF_PERICENTER":"21.7302","TLE_LINE1":"1 53546U 22101V   22244.91667824 -.01199499  00000-0 -61518-2 0  9993","DECAY_DATE":null},{"SEMIMAJOR_AXIS":"6727.977","NORAD_CAT_ID":"53547","MEAN_ANOMALY":"289.2990","MEAN_MOTION":"15.73171212","CENTER_NAME":"EARTH","EPHEMERIS_TYPE":"0","PERIOD":"91.535","INCLINATION":"53.2163","EPOCH":"2022-09-01T22:00:00.999936","APOAPSIS":"350.793","OBJECT_TYPE":"PAYLOAD","GP_ID":"211505971","LAUNCH_DATE":"2022-08-19","TIME_SYSTEM":"UTC","REF_FRAME":"TEME","RA_OF_ASC_NODE":"89.7755","COUNTRY_CODE":"US","TLE_LINE2":"2 53547  53.2163  89.7755 0001413  63.4562 289.2990 15.73171212  1305","MEAN_MOTION_DDOT":"0.0000000000000","ECCENTRICITY":"0.00014130","BSTAR":"0.00027263000000","CLASSIFICATION_TYPE":"U","RCS_SIZE":null,"ELEMENT_SET_NO":"999","MEAN_MOTION_DOT":"0.00037767","OBJECT_ID":"2022-101W","PERIAPSIS":"348.892","MEAN_ELEMENT_THEORY":"SGP4","FILE":"3554009","OBJECT_NAME":"STARLINK-4474","TLE_LINE1":"1 53547U 22101W   22244.91667824  .00037767  00000-0  27263-3 0  9990","ARG_OF_PERICENTER":"63.4562","REV_AT_EPOCH":"130","SITE":"AFETR","DECAY_DATE":null},{"OBJECT_ID":"2022-101X","MEAN_MOTION_DOT":"0.00041164","PERIAPSIS":"348.934","FILE":"3554009","MEAN_ELEMENT_THEORY":"SGP4","OBJECT_NAME":"STARLINK-4513","ARG_OF_PERICENTER":"58.9783","TLE_LINE1":"1 53548U 22101X   22244.91667824  .00041164  00000-0  29652-3 0  9991","SITE":"AFETR","REV_AT_EPOCH":"130","DECAY_DATE":null,"BSTAR":"0.00029652000000","ECCENTRICITY":"0.00013110","CLASSIFICATION_TYPE":"U","RCS_SIZE":null,"ELEMENT_SET_NO":"999","OBJECT_TYPE":"PAYLOAD","GP_ID":"211506671","LAUNCH_DATE":"2022-08-19","TIME_SYSTEM":"UTC","RA_OF_ASC_NODE":"89.7694","REF_FRAME":"TEME","COUNTRY_CODE":"US","TLE_LINE2":"2 53548  53.2162  89.7694 0001311  58.9783 296.7299 15.73180570  1300","MEAN_MOTION_DDOT":"0.0000000000000","SEMIMAJOR_AXIS":"6727.951","NORAD_CAT_ID":"53548","MEAN_ANOMALY":"296.7299","MEAN_MOTION":"15.73180570","CENTER_NAME":"EARTH","EPHEMERIS_TYPE":"0","PERIOD":"91.534","INCLINATION":"53.2162","EPOCH":"2022-09-01T22:00:00.999936","APOAPSIS":"350.698"},{"ELEMENT_SET_NO":"999","RCS_SIZE":null,"CLASSIFICATION_TYPE":"U","ECCENTRICITY":"0.00011000","BSTAR":"0.00014650000000","DECAY_DATE":null,"REV_AT_EPOCH":"130","SITE":"AFETR","TLE_LINE1":"1 53549U 22101Y   22244.91667824  .00019995  00000-0  14650-3 0  9991","ARG_OF_PERICENTER":"53.0810","OBJECT_NAME":"STARLINK-4516","MEAN_ELEMENT_THEORY":"SGP4","FILE":"3554009","PERIAPSIS":"349.001","MEAN_MOTION_DOT":"0.00019995","OBJECT_ID":"2022-101Y","APOAPSIS":"350.481","EPOCH":"2022-09-01T22:00:00.999936","INCLINATION":"53.2155","PERIOD":"91.533","EPHEMERIS_TYPE":"0","CENTER_NAME":"EARTH","MEAN_MOTION":"15.73206761","MEAN_ANOMALY":"300.8741","NORAD_CAT_ID":"53549","SEMIMAJOR_AXIS":"6727.876","MEAN_MOTION_DDOT":"0.0000000000000","TLE_LINE2":"2 53549  53.2155  89.7705 0001100  53.0810 300.8741 15.73206761  1309","COUNTRY_CODE":"US","RA_OF_ASC_NODE":"89.7705","REF_FRAME":"TEME","TIME_SYSTEM":"UTC","LAUNCH_DATE":"2022-08-19","GP_ID":"211506114","OBJECT_TYPE":"PAYLOAD"}];
